{
  "links" : {
    "next" : "https://api.nasa.gov/neo/rest/v1/feed?start_date=2009-06-23&end_date=2009-06-23&detailed=true&api_key=t0TVs3DtDT2H8Oy2Zy8m2eVrNsAVKAexjcZXUckd",
    "prev" : "https://api.nasa.gov/neo/rest/v1/feed?start_date=2009-06-21&end_date=2009-06-21&detailed=true&api_key=t0TVs3DtDT2H8Oy2Zy8m2eVrNsAVKAexjcZXUckd",
    "self" : "https://api.nasa.gov/neo/rest/v1/feed?start_date=2009-06-22&end_date=2009-06-22&detailed=true&api_key=t0TVs3DtDT2H8Oy2Zy8m2eVrNsAVKAexjcZXUckd"
  },
  "element_count" : 6,
  "near_earth_objects" : {
    "2009-06-22" : [ {
      "links" : {
        "self" : "https://api.nasa.gov/neo/rest/v1/neo/3463079?api_key=t0TVs3DtDT2H8Oy2Zy8m2eVrNsAVKAexjcZXUckd"
      },
      "neo_reference_id" : "3463079",
      "name" : "(2009 LQ)",
      "nasa_jpl_url" : "http://ssd.jpl.nasa.gov/sbdb.cgi?sstr=3463079",
      "absolute_magnitude_h" : 21.7,
      "estimated_diameter" : {
        "kilometers" : {
          "estimated_diameter_min" : 0.1214940408,
          "estimated_diameter_max" : 0.2716689341
        },
        "meters" : {
          "estimated_diameter_min" : 121.4940407996,
          "estimated_diameter_max" : 271.6689340891
        },
        "miles" : {
          "estimated_diameter_min" : 0.0754928736,
          "estimated_diameter_max" : 0.1688071972
        },
        "feet" : {
          "estimated_diameter_min" : 398.6025088171,
          "estimated_diameter_max" : 891.3023057169
        }
      },
      "is_potentially_hazardous_asteroid" : true,
      "close_approach_data" : [ {
        "close_approach_date" : "2009-06-22",
        "epoch_date_close_approach" : 1245654000000,
        "relative_velocity" : {
          "kilometers_per_second" : "16.1731543956",
          "kilometers_per_hour" : "58223.355824317",
          "miles_per_hour" : "36177.7290676152"
        },
        "miss_distance" : {
          "astronomical" : "0.0737020691",
          "lunar" : "28.6701049805",
          "kilometers" : "11025672",
          "miles" : "6851035"
        },
        "orbiting_body" : "Earth"
      } ],
      "orbital_data" : {
        "orbit_id" : "15",
        "orbit_determination_date" : "2017-04-06 09:00:27",
        "orbit_uncertainty" : "9",
        "minimum_orbit_intersection" : ".04222",
        "jupiter_tisserand_invariant" : "4.258",
        "epoch_osculation" : "2454998.5",
        "eccentricity" : ".5910291568668766",
        "semi_major_axis" : "1.537444764476925",
        "inclination" : "5.341205465284249",
        "ascending_node_longitude" : "114.6363438246717",
        "orbital_period" : "696.3021076035294",
        "perihelion_distance" : ".6287700815987345",
        "perihelion_argument" : "243.9467291517691",
        "aphelion_distance" : "2.446119447355116",
        "perihelion_time" : "2455057.188566667378",
        "mean_anomaly" : "329.6570155834051",
        "mean_motion" : ".5170169615585625",
        "equinox" : "J2000"
      }
    }, {
      "links" : {
        "self" : "https://api.nasa.gov/neo/rest/v1/neo/2418849?api_key=t0TVs3DtDT2H8Oy2Zy8m2eVrNsAVKAexjcZXUckd"
      },
      "neo_reference_id" : "2418849",
      "name" : "418849 (2008 WM64)",
      "nasa_jpl_url" : "http://ssd.jpl.nasa.gov/sbdb.cgi?sstr=2418849",
      "absolute_magnitude_h" : 20.7,
      "estimated_diameter" : {
        "kilometers" : {
          "estimated_diameter_min" : 0.1925550782,
          "estimated_diameter_max" : 0.4305662442
        },
        "meters" : {
          "estimated_diameter_min" : 192.5550781879,
          "estimated_diameter_max" : 430.566244241
        },
        "miles" : {
          "estimated_diameter_min" : 0.1196481415,
          "estimated_diameter_max" : 0.2675413778
        },
        "feet" : {
          "estimated_diameter_min" : 631.7424027221,
          "estimated_diameter_max" : 1412.6189567557
        }
      },
      "is_potentially_hazardous_asteroid" : true,
      "close_approach_data" : [ {
        "close_approach_date" : "2009-06-22",
        "epoch_date_close_approach" : 1245654000000,
        "relative_velocity" : {
          "kilometers_per_second" : "17.5999767779",
          "kilometers_per_hour" : "63359.9164005887",
          "miles_per_hour" : "39369.3880545769"
        },
        "miss_distance" : {
          "astronomical" : "0.0447980589",
          "lunar" : "17.4264450073",
          "kilometers" : "6701694",
          "miles" : "4164239.75"
        },
        "orbiting_body" : "Earth"
      } ],
      "orbital_data" : {
        "orbit_id" : "39",
        "orbit_determination_date" : "2017-07-13 15:55:06",
        "orbit_uncertainty" : "0",
        "minimum_orbit_intersection" : ".0357698",
        "jupiter_tisserand_invariant" : "5.906",
        "epoch_osculation" : "2458000.5",
        "eccentricity" : ".1069597171974132",
        "semi_major_axis" : "1.00499713063425",
        "inclination" : "33.52410010026813",
        "ascending_node_longitude" : "91.46918576189661",
        "orbital_period" : "367.9981704913307",
        "perihelion_distance" : ".8975029217573987",
        "perihelion_argument" : "256.4985586931706",
        "aphelion_distance" : "1.112491339511101",
        "perihelion_time" : "2458016.493899419939",
        "mean_anomaly" : "344.3537162603537",
        "mean_motion" : ".9782657330044551",
        "equinox" : "J2000"
      }
    }, {
      "links" : {
        "self" : "https://api.nasa.gov/neo/rest/v1/neo/3283835?api_key=t0TVs3DtDT2H8Oy2Zy8m2eVrNsAVKAexjcZXUckd"
      },
      "neo_reference_id" : "3283835",
      "name" : "(2005 NW44)",
      "nasa_jpl_url" : "http://ssd.jpl.nasa.gov/sbdb.cgi?sstr=3283835",
      "absolute_magnitude_h" : 20.4,
      "estimated_diameter" : {
        "kilometers" : {
          "estimated_diameter_min" : 0.2210828104,
          "estimated_diameter_max" : 0.4943561926
        },
        "meters" : {
          "estimated_diameter_min" : 221.0828103591,
          "estimated_diameter_max" : 494.3561926196
        },
        "miles" : {
          "estimated_diameter_min" : 0.137374447,
          "estimated_diameter_max" : 0.3071786018
        },
        "feet" : {
          "estimated_diameter_min" : 725.3373275385,
          "estimated_diameter_max" : 1621.9035709942
        }
      },
      "is_potentially_hazardous_asteroid" : false,
      "close_approach_data" : [ {
        "close_approach_date" : "2009-06-22",
        "epoch_date_close_approach" : 1245654000000,
        "relative_velocity" : {
          "kilometers_per_second" : "21.8716424832",
          "kilometers_per_hour" : "78737.9129396381",
          "miles_per_hour" : "48924.6770707435"
        },
        "miss_distance" : {
          "astronomical" : "0.3214400322",
          "lunar" : "125.0401763916",
          "kilometers" : "48086748",
          "miles" : "29879718"
        },
        "orbiting_body" : "Earth"
      } ],
      "orbital_data" : {
        "orbit_id" : "54",
        "orbit_determination_date" : "2016-08-01 07:47:53",
        "orbit_uncertainty" : "0",
        "minimum_orbit_intersection" : ".0538301",
        "jupiter_tisserand_invariant" : "7.351",
        "epoch_osculation" : "2457600.5",
        "eccentricity" : ".4834429433842949",
        "semi_major_axis" : ".7792537736381295",
        "inclination" : "6.059105248565197",
        "ascending_node_longitude" : "114.4535882317424",
        "orbital_period" : "251.2562062352404",
        "perihelion_distance" : ".4025290356671931",
        "perihelion_argument" : ".7517608573124086",
        "aphelion_distance" : "1.155978511609066",
        "perihelion_time" : "2457707.604409445406",
        "mean_anomaly" : "206.5407562341112",
        "mean_motion" : "1.432800428670596",
        "equinox" : "J2000"
      }
    } ]
  }
}